norad_id,name,regime,epoch,line1,line2,inclination,eccentricity,mean_motion,raan,arg_pericenter,mean_anomaly
26566,COSMOS 2374 (GLONASS),NSO,06185.48462935,1 26566U 00063C   06185.48462935 +.00000112 +00000-0 +10000-3 0 07137\,2 26566 064.5217 199.9951 0047175 218.9184 284.0462 02.13098746044523,64.5217,0.0047175,2.13098746,199.9951,218.9184,284.0462
26566,COSMOS 2374 (GLONASS),NSO,06186.20531223,1 26566U 00063C   06186.20531223  .00000118  00000-0  10000-3 0  7120\,2 26566 064.5216 199.9709 0047173 218.9556 116.8841 02.13098751 44534,64.5216,0.0047173,2.13098751,199.9709,218.9556,116.8841
26566,COSMOS 2374 (GLONASS),NSO,06186.98583957,1 26566U 00063C   06186.98583957 +.00000123 +00000-0 +10000-3 0 07144\,2 26566 064.5217 199.9447 0047203 218.9302 355.6970 02.13098786044553,64.5217,0.0047203,2.13098786,199.9447,218.9302,355.697
26566,COSMOS 2374 (GLONASS),NSO,06187.28996972,1 26566U 00063C   06187.28996972  .00000124  00000-0  10000-3 0  7133\,2 26566 064.5217 199.9344 0047195 218.9477 228.9962 02.13098816 44560,64.5217,0.0047195,2.13098816,199.9344,218.9477,228.9962
26566,COSMOS 2374 (GLONASS),NSO,06187.37678291,1 26566U 00063C   06187.37678291 +.00000124 +00000-0 +10000-3 0 07145\,2 26566 064.5217 199.9316 0047192 218.9134 295.6303 02.13098822044563,64.5217,0.0047192,2.13098822,199.9316,218.9134,295.6303
26566,COSMOS 2374 (GLONASS),NSO,06188.74145891,1 26566U 00063C   06188.74145891  .00000124  00000-0  10000-3 0  7142\,2 26566 064.5217 199.8857 0047234 218.8451 262.6182 02.13098845 44597,64.5217,0.0047234,2.13098845,199.8857,218.8451,262.6182
26566,COSMOS 2374 (GLONASS),NSO,06189.15549302,1 26566U 00063C   06189.15549302 +.00000123 +00000-0 +10000-3 0 07153\,2 26566 064.5218 199.8718 0047226 218.8473 220.2450 02.13098858044603,64.5218,0.0047226,2.13098858,199.8718,218.8473,220.245
26566,COSMOS 2374 (GLONASS),NSO,06190.03813300,1 26566U 00063C   06190.03813300  .00000118  00000-0  10000-3 0  7158\,2 26566 064.5217 199.8422 0047227 218.8774 177.3368 02.13098868 44622,64.5217,0.0047227,2.13098868,199.8422,218.8774,177.3368
26566,COSMOS 2374 (GLONASS),NSO,06190.58947123,1 26566U 00063C   06190.58947123 +.00000113 +00000-0 +10000-3 0 07176\,2 26566 064.5219 199.8239 0047233 218.8912 240.2866 02.13098901044633,64.5219,0.0047233,2.13098901,199.8239,218.8912,240.2866
26566,COSMOS 2374 (GLONASS),NSO,06191.05465189,1 26566U 00063C   06191.05465189  .00000109  00000-0  10000-3 0  7160\,2 26566 064.5217 199.8083 0047226 218.9513 237.0929 02.13098921 44645,64.5217,0.0047226,2.13098921,199.8083,218.9513,237.0929
26566,COSMOS 2374 (GLONASS),NSO,06191.59261622,1 26566U 00063C   06191.59261622 +.00000104 +00000-0 +10000-3 0 07171\,2 26566 064.5217 199.7903 0047221 218.9409 289.8061 02.13098935044652,64.5217,0.0047221,2.13098935,199.7903,218.9409,289.8061
26566,COSMOS 2374 (GLONASS),NSO,06192.36489986,1 26566U 00063C   06192.36489986  .00000097  00000-0  10000-3 0  7173\,2 26566 064.5218 199.7644 0047239 218.9556 162.2543 02.13098963 44679,64.5218,0.0047239,2.13098963,199.7644,218.9556,162.2543
26566,COSMOS 2374 (GLONASS),NSO,06192.52468684,1 26566U 00063C   06192.52468684 +.00000096 +00000-0 +10000-3 0 07183\,2 26566 064.5217 199.7591 0047228 218.9559 284.8369 02.13098990044677,64.5217,0.0047228,2.1309899,199.7591,218.9559,284.8369
26566,COSMOS 2374 (GLONASS),NSO,06193.36605454,1 26566U 00063C   06193.36605454  .00000090  00000-0  10000-3 0  7188\,2 26566 064.5218 199.7309 0047243 218.9618 210.2921 02.13099018 44699,64.5218,0.0047243,2.13099018,199.7309,218.9618,210.2921
26566,COSMOS 2374 (GLONASS),NSO,06193.46208559,1 26566U 00063C   06193.46208559 +.00000089 +00000-0 +10000-3 0 07193\,2 26566 064.5219 199.7279 0047246 218.9579 283.9672 02.13099027044695,64.5219,0.0047246,2.13099027,199.7279,218.9579,283.9672
26566,COSMOS 2374 (GLONASS),NSO,06194.40513507,1 26566U 00063C   06194.40513507  .00000085  00000-0  10000-3 0  7196\,2 26566 064.5218 199.6962 0047247 218.9361 287.4575 02.13099076 44710,64.5218,0.0047247,2.13099076,199.6962,218.9361,287.4575
26566,COSMOS 2374 (GLONASS),NSO,06194.71153758,1 26566U 00063C   06194.71153758 +.00000085 +00000-0 +10000-3 0 07200\,2 26566 064.5218 199.6859 0047256 218.9395 162.5129 02.13099081044727,64.5218,0.0047256,2.13099081,199.6859,218.9395,162.5129
26566,COSMOS 2374 (GLONASS),NSO,06195.65326124,1 26566U 00063C   06195.65326124  .00000086  00000-0  10000-3 0  7204\,2 26566 064.5221 199.6546 0047349 218.9293 164.9747 02.13099130 44743,64.5221,0.0047349,2.1309913,199.6546,218.9293,164.9747
26566,COSMOS 2374 (GLONASS),NSO,06196.20438363,1 26566U 00063C   06196.20438363 +.00000089 +00000-0 +10000-3 0 07219\,2 26566 064.5222 199.6360 0047363 218.9354 227.7666 02.13099159044752,64.5222,0.0047363,2.13099159,199.636,218.9354,227.7666
26566,COSMOS 2374 (GLONASS),NSO,06197.62878281,1 26566U 00063C   06197.62878281  .00000099  00000-0  10000-3 0  7214\,2 26566 064.5223 199.5881 0047343 218.9183 240.5207 02.13099173 44781,64.5223,0.0047343,2.13099173,199.5881,218.9183,240.5207
26566,COSMOS 2374 (GLONASS),NSO,06198.64356024,1 26566U 00063C   06198.64356024  .00000105  00000-0  10000-3 0  7222\,2 26566 064.5225 199.5543 0047317 218.9324 298.9999 02.13099195 44808,64.5225,0.0047317,2.13099195,199.5543,218.9324,298.9999
26566,COSMOS 2374 (GLONASS),NSO,06199.57011303,1 26566U 00063C   06199.57011303 +.00000109 +00000-0 +10000-3 0 07249\,2 26566 064.5225 199.5232 0047330 218.9207 289.8233 02.13099216044824,64.5225,0.004733,2.13099216,199.5232,218.9207,289.8233
26566,COSMOS 2374 (GLONASS),NSO,06199.93625282,1 26566U 00063C   06199.93625282  .00000109  00000-0  10000-3 0  7235\,2 26566 064.5226 199.5109 0047344 218.9182 210.7127 02.13099226 44832,64.5226,0.0047344,2.13099226,199.5109,218.9182,210.7127
26566,COSMOS 2374 (GLONASS),NSO,06200.50219744,1 26566U 00063C   06200.50219744 +.00000107 +00000-0 +10000-3 0 07253\,2 26566 064.5226 199.4917 0047344 218.9432 284.8565 02.13099245044846,64.5226,0.0047344,2.13099245,199.4917,218.9432,284.8565
26566,COSMOS 2374 (GLONASS),NSO,06200.96867718,1 26566U 00063C   06200.96867718  .00000105  00000-0  10000-3 0  7240\,2 26566 064.5227 199.4761 0047341 218.9394 282.7232 02.13099247 44859,64.5227,0.0047341,2.13099247,199.4761,218.9394,282.7232
26566,COSMOS 2374 (GLONASS),NSO,06201.94212110,1 26566U 00063C   06201.94212110 +.00000096 +00000-0 +10000-3 0 07260\,2 26566 064.5228 199.4439 0047355 218.9503 309.4975 02.13099285044874,64.5228,0.0047355,2.13099285,199.4439,218.9503,309.4975
26566,COSMOS 2374 (GLONASS),NSO,06202.17351870,1 26566U 00063C   06202.17351870  .00000093  00000-0  10000-3 0  7259\,2 26566 064.5227 199.4360 0047355 218.9542 127.0118 02.13099284 44871,64.5227,0.0047355,2.13099284,199.436,218.9542,127.0118
26566,COSMOS 2374 (GLONASS),NSO,06202.85574442,1 26566U 00063C   06202.85574442 +.00000084 +00000-0 +10000-3 0 07278\,2 26566 064.5229 199.4134 0047341 218.9649 290.3758 02.13099314044895,64.5229,0.0047341,2.13099314,199.4134,218.9649,290.3758
26566,COSMOS 2374 (GLONASS),NSO,06203.33172417,1 26566U 00063C   06203.33172417  .00000077  00000-0  10000-3 0  7269\,2 26566 064.5229 199.3975 0047338 218.9568 295.5352 02.13099321 44900,64.5229,0.0047338,2.13099321,199.3975,218.9568,295.5352
26566,COSMOS 2374 (GLONASS),NSO,06204.11457334,1 26566U 00063C   06204.11457334  .00000066  00000-0  10000-3 0  7279\,2 26566 064.5226 199.3707 0047427 218.8582 176.2021 02.13099312 44924,64.5226,0.0047427,2.13099312,199.3707,218.8582,176.2021
26566,COSMOS 2374 (GLONASS),NSO,06204.65103552,1 26566U 00063C   06204.65103552 +.00000058 +00000-0 +10000-3 0 07280\,2 26566 064.5228 199.3532 0047347 218.9352 227.6758 02.13099333044931,64.5228,0.0047347,2.13099333,199.3532,218.9352,227.6758
26566,COSMOS 2374 (GLONASS),NSO,06205.15031785,1 26566U 00063C   06205.15031785  .00000052  00000-0  10000-3 0  7288\,2 26566 064.5229 199.3365 0047343 218.9464 250.6930 02.13099346 44949,64.5229,0.0047343,2.13099346,199.3365,218.9464,250.693
26566,COSMOS 2374 (GLONASS),NSO,06205.62172808,1 26566U 00063C   06205.62172808 +.00000048 +00000-0 +10000-3 0 07298\,2 26566 064.5229 199.3207 0047345 218.9447 252.3407 02.13099354044955,64.5229,0.0047345,2.13099354,199.3207,218.9447,252.3407
26566,COSMOS 2374 (GLONASS),NSO,06206.62105543,1 26566U 00063C   06206.62105543  .00000042  00000-0  10000-3 0  7295\,2 26566 064.5229 199.2873 0047345 218.9465 298.9801 02.13099368 44974,64.5229,0.0047345,2.13099368,199.2873,218.9465,298.9801
26566,COSMOS 2374 (GLONASS),NSO,06207.93420795,1 26566U 00063C   06207.93420795 +.00000043 +00000-0 +10000-3 0 07324\,2 26566 064.5230 199.2434 0047353 218.9393 226.3816 02.13099377045004,64.523,0.0047353,2.13099377,199.2434,218.9393,226.3816
26566,COSMOS 2374 (GLONASS),NSO,06208.47965689,1 26566U 00063C   06208.47965689 +.00000047 +00000-0 +10000-3 0 07324\,2 26566 064.5231 199.2252 0047347 218.9440 284.8217 02.13099380045018,64.5231,0.0047347,2.1309938,199.2252,218.944,284.8217
26566,COSMOS 2374 (GLONASS),NSO,06209.03043338,1 26566U 00063C   06209.03043338  .00000052  00000-0  10000-3 0  7310\,2 26566 064.5231 199.2067 0047390 218.9159 347.3848 02.13099417 45024,64.5231,0.004739,2.13099417,199.2067,218.9159,347.3848
26566,COSMOS 2374 (GLONASS),NSO,06209.41704718,1 26566U 00063C   06209.41704718 +.00000056 +00000-0 +10000-3 0 07323\,2 26566 064.5232 199.1937 0047418 218.9132 283.9816 02.13099427045034,64.5232,0.0047418,2.13099427,199.1937,218.9132,283.9816
26566,COSMOS 2374 (GLONASS),NSO,06210.36008696,1 26566U 00063C   06210.36008696  .00000067  00000-0  10000-3 0  7323\,2 26566 064.5232 199.1620 0047424 218.8775 287.4784 02.13099448 45050,64.5232,0.0047424,2.13099448,199.162,218.8775,287.4784
26566,COSMOS 2374 (GLONASS),NSO,06211.30917928,1 26566U 00063C   06211.30917928 +.00000079 +00000-0 +10000-3 0 07340\,2 26566 064.5233 199.1300 0047442 218.8174 295.6434 02.13099478045077,64.5233,0.0047442,2.13099478,199.13,218.8174,295.6434
